NUSAT-1 (FRESCO)        
1 41557U 16033B   22351.96517959  .00025343  00000+0  62215-3 0  9994
2 41557  97.3895  90.6519 0010751  81.6686  30.8176 15.40612773365571
BEESAT-4                
1 41619U 16040W   22351.70094541  .00025452  00000+0  69044-3 0  9998
2 41619  97.1925  37.8683 0007981 166.6492 193.4965 15.37570954348817
CAS-2T & KS-1Q          
1 41847U 16066G   22351.80252295  .00000876  00000+0  14008-3 0  9995
2 41847  98.5299  56.0999 0362891  21.3748 340.2165 14.38959330320719
NAYIF-1 (EO-88)         
1 42017U 17008BX  22351.79629360  .00032773  00000+0  75502-3 0  9998
2 42017  97.2468  55.8581 0003018 323.0240  37.0799 15.42533017325253
ZHUHAI-1 02 (CAS-4B)    
1 42759U 17034B   22351.63481736  .00006591  00000+0  37301-3 0  9990
2 42759  43.0184  41.9324 0010707   1.5341 134.9311 15.13547843304090
ZHUHAI-1 01 (CAS-4A)    
1 42761U 17034D   22351.66155792  .00007349  00000+0  41321-3 0  9995
2 42761  43.0182  40.4392 0010590   3.7667 141.3598 15.13651487304106
MAX VALIER SAT          
1 42778U 17036P   22351.69130758  .00013708  00000+0  46413-3 0  9996
2 42778  97.1838  26.6494 0011117  41.4255 318.7828 15.30639240304893
RADFXSAT (FOX-1B)       
1 43017U 17073E   22351.67432699  .00007159  00000+0  52844-3 0  9999
2 43017  97.6525 238.2967 0242355 307.3695  50.5665 14.82980497274251
FOX-1D (AO-92)          
1 43137U 18004AC  22351.85667707  .00016375  00000+0  50175-3 0  9992
2 43137  97.3523  65.6669 0008366  73.5805 286.6357 15.33835604274411
DIWATA-2B               
1 43678U 18084H   22351.83207736  .00001673  00000+0  16840-3 0  9996
2 43678  97.9956 127.5906 0010812  46.5137 313.6964 14.92561989225200
ES'HAIL 2               
1 43700U 18090A   22351.81380139  .00000170  00000+0  00000+0 0  9994
2 43700   0.0020  28.2662 0001247 276.3830 100.5454  1.00269453 14865
FOX-1CLIFF (AO-95)      
1 43770U 18099N   22351.81850785  .00002893  00000+0  25279-3 0  9992
2 43770  97.6004  53.2962 0014573  25.5855 334.6085 14.97476907220441
ITASAT 1                
1 43786U 18099AE  22351.73449183  .00003861  00000+0  33551-3 0  9994
2 43786  97.6038  54.2203 0015019  20.9580 339.2255 14.97483989220475
JY1SAT (JO-97)          
1 43803U 18099AX  22351.74610628  .00003627  00000+0  30960-3 0  9990
2 43803  97.6006  54.0640 0015030  18.7357 341.4416 14.98224984220500
UWE-4                   
1 43880U 18111E   22351.67655914  .00004872  00000+0  40215-3 0  9996
2 43880  97.6560 254.7736 0012988  72.2852 287.9788 14.99383804217149
NEXUS (FO-99)           
1 43937U 19003F   22351.84941278  .00020640  00000+0  58400-3 0  9996
2 43937  97.1125  18.4637 0016708 210.7311 149.2957 15.36189119218078
PSAT2 (NO-104)          
1 44354U 19036R   22351.27073140  .00185415  27770-5  81856-3 0  9999
2 44354  28.5213 327.5633 0132698 269.4431  89.0970 15.70878305193101
JAISAT-1                
1 44419U 19038F   22351.65355676  .00012883  00000+0  58251-3 0  9994
2 44419  97.6582 323.8982 0016217 212.1732 147.8515 15.20953233190869
DUCHIFAT-3              
1 44854U 19089C   22351.68712912  .00006579  00000+0  48961-3 0  9998
2 44854  36.9636  92.9724 0008007 277.8250  82.1590 15.02623598165490
CAS-6 (TIANQIN 1)       
1 44881U 19093C   22351.90913335  .00000860  00000+0  11497-3 0  9991
2 44881  97.8795  68.3725 0013864 313.1549  46.8486 14.81976881161941
RS-44 & BREEZE-KM R/B   
1 44909U 19096E   22351.76209944  .00000026  00000+0  66029-4 0  9999
2 44909  82.5212 108.5036 0216563 251.0125 106.7399 12.79717210138958
ORBITAL FACTORY 2 (OF-2)
1 45113U 19071C   22351.09509910  .00071940  00000+0  86716-3 0  9999
2 45113  51.6326 233.0635 0011317 134.2146 225.9778 15.60050857161729
HUSKYSAT-1 (HO-107)     
1 45119U 19071J   22350.98243760  .00056760  00000+0  77767-3 0  9999
2 45119  51.6330 236.0259 0011035 128.0612 232.1376 15.56754157161667
BY70-2                  
1 45857U 20042B   22351.92889527  .00011552  00000+0  14379-2 0  9999
2 45857  97.9432  67.2129 0009214 235.0718 124.9673 14.82631783132612
SALSAT                  
1 46495U 20068K   22351.80876859  .00003533  00000+0  24944-3 0  9997
2 46495  97.7489 293.4477 0016872  20.7739 339.4170 15.05491650121762
BY70-3                  
1 46839U 20079N   22351.86631302  .00061058  00000+0  94290-3 0  9996
2 46839  97.1785  62.5684 0004322  39.8772  71.9041 15.53913584118597
RADFXSAT-2 (AO-109)     
1 47311U 21002C   22351.82585551  .00012586  00000+0  44226-3 0  9995
2 47311  60.6853  30.2771 0038811  84.2174 276.3339 15.29065297106469
UVSQ-SAT                
1 47438U 21006AB  22351.68073791  .00008885  00000+0  43645-3 0  9992
2 47438  97.4147  46.9572 0011298   6.9084 353.2303 15.18233409105057
DIY-1 (ARDUIQUBE)       
1 47963U 21022AH  22351.70186856  .00032805  00000+0  14595-2 0  9993
2 47963  97.5166 251.5881 0011965 213.3507 146.6976 15.21350804 94728
XW-3 (CAS-9)            
1 50466U 21131B   22351.86714741  .00000346  00000+0  12765-3 0  9996
2 50466  98.5682  68.9135 0003735 332.5512  27.5477 14.38596626 51280
TEVEL-3                 
1 50988U 22002E   22351.77655595  .00012268  00000+0  61546-3 0  9991
2 50988  97.4609  55.8042 0009966 141.6027 358.9860 15.17422198 51186
TEVEL-8                 
1 50989U 22002F   22351.78799057  .00012295  00000+0  61779-3 0  9993
2 50989  97.4619  55.8534 0010071 141.3229 358.4231 15.17366159 51185
TEVEL-5                 
1 50998U 22002Q   22351.79402397  .00012513  00000+0  61754-3 0  9998
2 50998  97.4602  56.0342 0011396 138.0366 319.0696 15.17979845 51206
TEVEL-6                 
1 50999U 22002R   22351.79295476  .00012579  00000+0  62059-3 0  9998
2 50999  97.4602  56.0296 0011537 138.1682 318.3684 15.17986831 51206
TEVEL-1                 
1 51013U 22002AF  22351.78125926  .00012299  00000+0  61758-3 0  9991
2 51013  97.4599  55.7737 0009903 141.4219 354.9445 15.17392297 51187
TEVEL-7                 
1 51062U 22002CG  22351.79001352  .00012312  00000+0  61861-3 0  9993
2 51062  97.4617  55.8349 0010143 140.1469 359.4255 15.17365985 51186
TEVEL-4                 
1 51063U 22002CH  22351.79195473  .00012267  00000+0  61676-3 0  9995
2 51063  97.4610  55.8297 0009993 140.0817 359.7777 15.17346608 51182
TEVEL-2                 
1 51069U 22002CP  22351.83565813  .00012304  00000+0  61733-3 0  9991
2 51069  97.4602  55.8424 0009901 141.2167 312.2571 15.17419485 51192
GREENCUBE               
1 53106U 22080B   22340.05508001 -.00000003  00000+0  00000+0 0  9999
2 53106  70.1754  26.8219 0009008 228.0435 131.9458  6.42557522  9345
YUZGU 9 (RS3S)          
1 53308U 98067TT  22351.77747129  .00178551  00000+0  12597-2 0  9998
2 53308  51.6336 137.7596 0006066 240.0643 119.9754 15.72956105 23327
YUZGU 7 (RS1S)          
1 53309U 98067TU  22351.68593242  .00191065  00000+0  12967-2 0  9990
2 53309  51.6327 137.8894 0006603 244.2546 115.7772 15.73817940 23266
YUZGU 11 (RS5S)         
1 53310U 98067TV  22351.77605861  .00180916  00000+0  12721-2 0  9994
2 53310  51.6338 137.7498 0006358 240.5184 119.5181 15.73025093 23304
YUZGU 12 (RS6S)         
1 53311U 98067TW  22351.65629537  .00190758  00000+0  12393-2 0  9998
2 53311  51.6321 137.6884 0006138 243.8214 116.2155 15.74833523 23313
TSIOLKOVSKY-RYAZAN 1 (*)
1 53312U 98067TX  22351.88226887  .00187154  00000+0  12855-2 0  9994
2 53312  51.6327 136.9596 0006955 245.5605 114.4668 15.73547717 23283
TSIOLKOVSKY-RYAZAN 2 (*)
1 53313U 98067TY  22351.81296701  .00185389  00000+0  12693-2 0  9998
2 53313  51.6340 137.2477 0006457 246.7314 113.3005 15.73632191 23327
YUZGU 10 (RS4S)         
1 53321U 98067TZ  22351.82803454  .00176318  00000+0  12211-2 0  9995
2 53321  51.6328 137.3457 0006427 242.6814 117.3531 15.73394226 23320
RS29S (SXC3-2110 CYCLO*)
1 53373U 22096D   22351.88571554  .00017103  00000+0  63358-3 0  9995
2 53373  97.4277 252.5508 0003328  78.9592 344.7468 15.27706095 19910
RS32S (SXC3-212 MONITO*)
1 53374U 22096E   22351.87786910  .00015539  00000+0  57582-3 0  9992
2 53374  97.4274 252.5553 0003323  70.0749 355.5440 15.27717051 19914
RS34S (SXC3-218 KUZBAS*)
1 53375U 22096F   22351.83025875  .00013254  00000+0  49825-3 0  9998
2 53375  97.4270 252.4754 0003462  72.1169   3.4312 15.27277757 19906
RS23S (SXC3-21 UTMN)    
1 53376U 22096G   22351.82594545  .00014498  00000+0  54318-3 0  9997
2 53376  97.4273 252.4799 0003366  69.6242   3.2124 15.27369357 19902
RS28S (SXC3-214 MIET-A*)
1 53377U 22096H   22351.82815590  .00013729  00000+0  51596-3 0  9995
2 53377  97.4276 252.4841 0003457  71.5996  12.9283 15.27280684 19901
RS26S (KAI-1)           
1 53378U 22096J   22351.76977748  .00012093  00000+0  45810-3 0  9998
2 53378  97.4279 252.4082 0003337  65.3430  19.8875 15.27047011 19899
RS19S (SXC3-219 ISOI)   
1 53381U 22096M   22351.84976834  .00014151  00000+0  52326-3 0  9993
2 53381  97.4276 252.5966 0004558  14.2648  50.6809 15.27804761 19918
RS21S (CUBESX-HSE-2)    
1 53383U 22096P   22351.84612086  .00014453  00000+0  53331-3 0  9993
2 53383  97.4279 252.6039 0004849  13.1693  51.9331 15.27868761 19910
RS30S (SXC3-217 SIREN)  
1 53384U 22096Q   22351.85093583  .00012533  00000+0  46594-3 0  9990
2 53384  97.4276 252.5964 0004803  11.8479  53.3818 15.27655582 19912
RS20S (GEOSCAN-EDELVEIS)
1 53385U 22096R   22351.87310743  .00018042  00000+0  64817-3 0  9992
2 53385  97.4273 252.7161 0005137  11.5594  52.8004 15.28699392 19950
RS33S (SXC3-215 VIZARD) 
1 53386U 22096S   22351.76889069  .00021127  00000+0  73823-3 0  9998
2 53386  97.4274 252.7094 0006051   7.9731  77.5881 15.29568885 19933
